1 45051U 20006H   23108.76815330  .00300753  00000-0  51326-2 0  9997
2 45051  53.0512 308.4454 0008327 223.0203 137.0155 15.49710724177853
1 45051U 20006H   23108.96162136  .00308707  00000-0  52438-2 0  9990
2 45051  53.0512 307.5174 0008335 224.3314 135.7027 15.49813330177881
1 45051U 20006H   23109.79983940  .00252628  00000-0  42616-2 0  9993
2 45051  53.0516 303.4951 0008254 230.5148 129.5131 15.50221743178013
1 45051U 20006H   23110.50890324  .00253386  00000-0  42129-2 0  9998
2 45051  53.0516 300.0908 0008293 235.4826 124.5399 15.50627849178128
1 45051U 20006H   23111.21779207  .00272322  00000-0  44546-2 0  9999
2 45051  53.0513 296.6843 0008364 241.1731 118.8438 15.51014706178236
1 45051U 20006H   23111.79766345  .00282816  00000-0  45678-2 0  9997
2 45051  53.0510 293.8974 0008465 245.6006 114.4120 15.51332019178323
1 45051U 20006H   23112.50621522  .00317804  00000-0  50270-2 0  9994
2 45051  53.0509 290.4888 0008572 251.3293 108.6785 15.51786039178438
1 45051U 20006H   23113.47210495  .00320937  00000-0  49698-2 0  9997
2 45051  53.0510 285.8390 0008776 259.8077 100.1942 15.52366265178589
1 45051U 20006H   23114.50188382  .00742450  00000-0  10627-1 0  9998
2 45051  53.0508 280.8774 0008970 268.7297  91.2685 15.53439072178746
1 45051U 20006H   23115.46672104  .00316709  00000-0  46151-2 0  9990
2 45051  53.0504 276.2218 0009286 274.8795  85.1154 15.54059377178892
1 45051U 20006H   23116.43124572  .00284386  00000-0  40916-2 0  9997
2 45051  53.0509 271.5640 0009704 281.8906  78.1015 15.54521311179049
1 45051U 20006H   23116.88125017  .00281461  00000-0  40149-2 0  9990
2 45051  53.0513 269.3896 0009931 284.9013  75.0897 15.54764495179111
1 45051U 20006H   23117.45972006  .00310871  00000-0  43628-2 0  9995
2 45051  53.0516 266.5934 0010142 288.2680  71.7226 15.55102165179209
1 45051U 20006H   23118.42351288  .00349749  00000-0  47636-2 0  9995
2 45051  53.0510 261.9307 0010520 294.4525  65.5388 15.55776234179353
1 45051U 20006H   23119.57950342  .00378568  00000-0  49781-2 0  9992
2 45051  53.0495 256.3312 0010992 302.2873  57.7073 15.56621585179539
1 45051U 20006H   23120.60653520  .00316532  00000-0  40868-2 0  9996
2 45051  53.0480 251.3499 0011764 308.4540  51.5415 15.57318699179690
1 45051U 20006H   23121.56899368  .00330701  00000-0  41695-2 0  9997
2 45051  53.0471 246.6781 0012340 312.2700  47.7265 15.57897908179845
1 45051U 20006H   23121.63314453  .00336977  00000-0  42383-2 0  9998
2 45051  53.0471 246.3666 0012380 312.5807  47.4159 15.57940883179850
1 45051U 20006H   23122.53105949  .00393278  00000-0  47891-2 0  9992
2 45051  53.0476 242.0038 0012917 317.0179  42.9823 15.58603360179999
1 45051U 20006H   23122.72341852  .00382598  00000-0  46396-2 0  9990
2 45051  53.0480 241.0703 0012985 318.2419  41.7600 15.58749181180025
1 45051U 20006H   23123.55676547  .00391657  00000-0  46303-2 0  9998
2 45051  53.0482 237.0159 0013229 322.6028  37.4063 15.59387202180493
1 45051U 20006H   23123.68494191  .00379491  00000-0  44765-2 0  9997
2 45051  53.0480 236.3921 0013311 323.2298  36.7800 15.59485090180178
1 45051U 20006H   23124.58193753  .00462633  00000-0  52441-2 0  9998
2 45051  53.0481 232.0238 0013831 327.8875  32.1294 15.60250432180316
1 45051U 20006H   23124.71004363  .00435177  00000-0  49301-2 0  9995
2 45051  53.0483 231.3994 0013889 328.5515  31.4665 15.60354103180337
1 45051U 20006H   23125.67055079  .00423136  00000-0  46507-2 0  9998
2 45051  53.0487 226.7159 0014523 333.7049  26.3225 15.61173329180489
1 45051U 20006H   23126.50257496  .00615700  00000-0  64036-2 0  9995
2 45051  53.0480 222.6543 0015070 337.5671  22.4682 15.61979088180610
1 45051U 20006H   23127.46203135  .00492073  00000-0  50047-2 0  9995
2 45051  53.0473 217.9627 0015401 340.8306  19.2126 15.62940353180769
1 45051U 20006H   23128.61265751  .00484171  00000-0  47293-2 0  9994
2 45051  53.0471 212.3287 0015922 345.1637  14.8908 15.63986766180949
1 45051U 20006H   23129.50702995  .00515875  00000-0  48465-2 0  9997
2 45051  53.0464 207.9426 0016066 348.5548  11.5099 15.64871276181085
1 45051U 20006H   23130.46471061  .00637966  00000-0  56621-2 0  9990
2 45051  53.0465 203.2406 0016507 352.7020   7.3752 15.65919494181237
1 45051U 20006H   23130.65616698  .00577463  00000-0  51194-2 0  9993
2 45051  53.0461 202.2990 0016684 353.3932   6.6860 15.66126883181263
1 45051U 20006H   23131.42170289  .00626527  00000-0  53155-2 0  9995
2 45051  53.0454 198.5326 0016837 356.7006   3.3896 15.67069214181385
1 45051U 20006H   23131.48547731  .00623029  00000-0  52723-2 0  9995
2 45051  53.0453 198.2185 0016828 356.8561   3.2345 15.67143159181391
1 45051U 20006H   23132.44175410  .00614979  00000-0  49906-2 0  9996
2 45051  53.0439 193.5040 0016773   0.2000 359.9020 15.68199542181546
1 45051U 20006H   23132.63293117  .00626137  00000-0  50277-2 0  9994
2 45051  53.0435 192.5610 0016827   0.9572 359.1473 15.68424710181570
1 45051U 20006H   23133.52471793  .00607300  00000-0  46783-2 0  9999
2 45051  53.0430 188.1587 0016983   4.1664 355.9490 15.69486153181719
1 45051U 20006H   23133.84307139  .00577728  00000-0  44020-2 0  9998
2 45051  53.0426 186.5859 0017060   5.2243 354.8948 15.69834816181764
1 45051U 20006H   23134.54317748  .00625145  00000-0  45698-2 0  9992
2 45051  53.0423 183.1246 0016963   7.5285 352.5983 15.70698368181874
1 45051U 20006H   23134.86127809  .00663874  00000-0  47496-2 0  9993
2 45051  53.0424 181.5494 0016937   8.5250 351.6052 15.71103800181922
1 45051U 20006H   23135.49723002  .00661627  00000-0  45746-2 0  9990
2 45051  53.0421 178.3973 0016780  11.0096 349.1286 15.71925770182029
1 45051U 20006H   23135.81508309  .00658686  00000-0  44803-2 0  9991
2 45051  53.0417 176.8207 0016657  12.0154 348.1258 15.72323776182078
1 45051U 20006H   23136.38701109  .00763995  00000-0  49693-2 0  9999
2 45051  53.0414 173.9812 0016244  13.8032 346.3427 15.73092745182169
1 45051U 20006H   23137.78385277  .00728175  00000-0  43827-2 0  9992
2 45051  53.0407 167.0318 0015154  18.3309 341.8252 15.75015292182386
1 45051U 20006H   23138.41821234  .00773654  00000-0  44573-2 0  9992
2 45051  53.0405 163.8695 0014441  20.2220 339.9368 15.75908855182481
1 45051U 20006H   23139.74915160  .00900932  00000-0  46820-2 0  9999
2 45051  53.0393 157.2200 0012940  24.7083 335.4554 15.77933450182696
1 45051U 20006H   23140.76185655  .01262404  00000-0  58214-2 0  9997
2 45051  53.0386 152.1445 0011055  28.8219 331.3410 15.80172219182851
1 45051U 20006H   23141.26761772  .01231805  00000-0  53918-2 0  9990
2 45051  53.0380 149.6016 0010262  28.4162 331.7417 15.81386737182935
1 45051U 20006H   23142.27813183  .01831335  00000-0  71093-2 0  9994
2 45051  53.0369 144.5106 0008855  32.3421 327.8142 15.83788797183096
1 45051U 20006H   23142.71978933  .01158740  00000-0  44286-2 0  9994
2 45051  53.0363 142.2801 0008880  30.6679 329.4861 15.84457255183168
1 45051U 20006H   23143.41328309  .01278211  00000-0  44908-2 0  9995
2 45051  53.0368 138.7671 0007577  34.7623 325.3894 15.85984734183275
1 45051U 20006H   23144.98704934  .01249816  00000-0  37522-2 0  9993
2 45051  53.0383 130.7715 0006408  52.2968 307.8426 15.89254577183862
1 45051U 20006H   23145.19101650  .01121573  55166-3  37416-2 0  9990
2 45051  53.0383 129.7330 0006195  52.6413  35.3003 15.89704904183896
1 45051U 20006H   23146.43187574  .01547384  12157-2  43986-2 0  9990
2 45051  53.0422 123.4129 0003871  67.1313 293.2345 15.92994656184091
1 45051U 20006H   23147.82336671  .02375995  42395-2  51662-2 0  9993
2 45051  53.0359 116.2748 0003621  97.1109 341.1765 15.98719773184311
1 45051U 20006H   23148.27200941  .02977599  10402-1  60422-2 0  9998
2 45051  53.0393 113.9496 0004271 138.2093   5.8706 16.01466926184384
1 45051U 20006H   23148.93245782  .04065840  26333-1  62280-2 0  9996
2 45051  53.0332 110.5169 0005302 157.9063 202.5341 16.07113911184490
1 45051U 20006H   23149.38252490  .04482485  69852-1  61572-2 0  9994
2 45051  53.0369 108.1575 0006313 184.9755 264.9247 16.12334934184566
1 45051U 20006H   23149.92356694  .08803610  11769-4  40954-2 0  9994
2 45051  53.0298 105.2964 0006735 212.1024 147.9834 16.20948943184650
1 45051U 20006H   23150.37702523  .42424380  12323-4  17176-2 0  9999
2 45051  53.0231 102.8380 0010851 225.8395 276.2101 16.42856538184721
